LEMUR-2-FINNIAN         
1 66782U 25276DX  26182.95187135  .00003301  00000+0  26644-3 0  9990
2 66782  97.5330 253.4795 0008478  45.8769 314.3151 15.00493510 22212
LEMUR-2-STARLIGHT       
1 66783U 25276DY  26182.92125823  .00007189  00000+0  59318-3 0  9996
2 66783  97.5233 253.0562 0014626  85.7209 274.5685 14.99210790 32402
LEMUR-2-TARTIFLETTE     
1 66784U 25276DZ  26182.18540241  .00007353  00000+0  60685-3 0  9992
2 66784  97.5239 252.3534 0013629  95.3035 264.9744 14.99206357 32296
LEMUR-2-VUKASIN         
1 66785U 25276EA  26182.63392250  .00001648  00000+0  13557-3 0  9995
2 66785  97.5274 253.1182 0005017  90.9657 269.2142 15.00440726 32313
LEMUR-2-HOTSPUR-TOM     
1 66786U 25276EB  26182.91314510  .00007408  00000+0  61270-3 0  9995
2 66786  97.5229 253.0344 0014271  84.9400 275.3452 14.99116508 32333
LEMUR-2-MYRA            
1 66787U 25276EC  26182.86617640  .00009035  00000+0  71971-3 0  9997
2 66787  97.5214 253.2668 0018170  94.7705 265.5595 15.00449203 32410
LEMUR-2 FIKRETDENGIZ    
1 67363U 26004A   26182.92465420  .00004778  00000+0  52038-3 0  9994
2 67363  97.8012 181.2564 0010562  92.3046 267.9380 14.88432352 25472
TWILIGHT-1 OBJECT B     
1 67364U 26004B   26182.95552111  .00002058  00000+0  23143-3 0  9996
2 67364  97.8064 181.2954 0010241  83.1024 277.1357 14.87754645 25480
LEMUR-2-MARIO-SOUSA     
1 67365U 26004C   26182.97356743  .00004710  00000+0  51050-3 0  9997
2 67365  97.7988 181.3007 0010201  93.0214 267.2170 14.88634187 25495
LEMUR-2-SONNENBLUME     
1 67367U 26004E   26182.90688893  .00003024  00000+0  33196-3 0  9994
2 67367  97.7985 181.2136 0009732  94.6860 265.5469 14.88394172 25485
LEMUR-2-WOBLER          
1 67368U 26004F   26182.96550136  .00004389  00000+0  47635-3 0  9997
2 67368  97.8039 181.4085 0010015  86.0810 274.1552 14.88620143 25498
LEMUR-2-GRAM-E-SUE      
1 67370U 26004H   26182.95676906  .00002949  00000+0  32271-3 0  9993
2 67370  97.7971 181.2787 0008857  96.3817 263.8409 14.88538003 25493
LEMUR-2-KATIE           
1 67387U 26004AA  26182.92829273  .00005373  00000+0  56059-3 0  9999
2 67387  97.8033 181.7579 0004428  62.5578 297.6090 14.90144964 25509
LEMUR-2-HCS-BAZUS       
1 67388U 26004AB  26182.92690433  .00004545  00000+0  47449-3 0  9997
2 67388  97.8021 181.7362 0003835  62.2826 297.8780 14.90205652 25501
