OBJECT_NAME,OBJECT_ID,EPOCH,MEAN_MOTION,ECCENTRICITY,INCLINATION,RA_OF_ASC_NODE,ARG_OF_PERICENTER,MEAN_ANOMALY,EPHEMERIS_TYPE,CLASSIFICATION_TYPE,NORAD_CAT_ID,ELEMENT_SET_NO,REV_AT_EPOCH,BSTAR,MEAN_MOTION_DOT,MEAN_MOTION_DDOT
LEMUR-2-FINNIAN,2025-276DX,2026-07-01T22:50:41.684640,15.00493510,.0008478,97.5330,253.4795,45.8769,314.3151,0,U,66782,999,2221,.26643607E-3,.3301E-4,0
LEMUR-2-STARLIGHT,2025-276DY,2026-07-01T22:06:36.711072,14.99210790,.00146269,97.5233,253.0562,85.7209,274.5685,0,U,66783,999,3240,.59318366E-3,.7189E-4,0
LEMUR-2-TARTIFLETTE,2025-276DZ,2026-07-01T04:26:58.768224,14.99206357,.0013629,97.5239,252.3534,95.3035,264.9744,0,U,66784,999,3229,.60685E-3,.7353E-4,0
LEMUR-2-VUKASIN,2025-276EA,2026-07-01T15:12:50.904000,15.00440726,.00050174,97.5274,253.1182,90.9657,269.2142,0,U,66785,999,3231,.13556738E-3,.1648E-4,0
LEMUR-2-HOTSPUR-TOM,2025-276EB,2026-07-01T21:54:55.736640,14.99116508,.00142711,97.5229,253.0344,84.9400,275.3452,0,U,66786,999,3233,.61270136E-3,.7408E-4,0
LEMUR-2-MYRA,2025-276EC,2026-07-01T20:47:17.640960,15.00449203,.00181703,97.5214,253.2668,94.7705,265.5595,0,U,66787,999,3241,.71971285E-3,.9035E-4,0
LEMUR-2 FIKRETDENGIZ,2026-004A,2026-07-01T22:11:30.122880,14.88432352,.00105623,97.8012,181.2564,92.3046,267.9380,0,U,67363,999,2547,.52038455E-3,.4778E-4,0
TWILIGHT-1 OBJECT B,2026-004B,2026-07-01T22:55:57.023904,14.87754645,.00102413,97.8064,181.2954,83.1024,277.1357,0,U,67364,999,2548,.23142862E-3,.2058E-4,0
LEMUR-2-MARIO-SOUSA,2026-004C,2026-07-01T23:21:56.225952,14.88634187,.00102017,97.7988,181.3007,93.0214,267.2170,0,U,67365,999,2549,.51049534E-3,.471E-4,0
LEMUR-2-SONNENBLUME,2026-004E,2026-07-01T21:45:55.203552,14.88394172,.00097327,97.7985,181.2136,94.6860,265.5469,0,U,67367,999,2548,.33195676E-3,.3024E-4,0
LEMUR-2-WOBLER,2026-004F,2026-07-01T23:10:19.317504,14.88620143,.00100152,97.8039,181.4085,86.0810,274.1552,0,U,67368,999,2549,.47635231E-3,.4389E-4,0
LEMUR-2-GRAM-E-SUE,2026-004H,2026-07-01T22:57:44.846784,14.88538003,.00088572,97.7971,181.2787,96.3817,263.8409,0,U,67370,999,2549,.32270566E-3,.2949E-4,0
LEMUR-2-KATIE,2026-004AA,2026-07-01T22:16:44.491872,14.90144964,.00044289,97.8033,181.7579,62.5578,297.6090,0,U,67387,999,2550,.56059055E-3,.5373E-4,0
LEMUR-2-HCS-BAZUS,2026-004AB,2026-07-01T22:14:44.534112,14.90205652,.0003835,97.8021,181.7362,62.2826,297.8780,0,U,67388,999,2550,.47449027E-3,.4545E-4,0
